{"fetched_at":"2026-07-17T06:38:20.138Z","source":"https://celestrak.org/NORAD/elements/gp.php?NAME=ICEYE&FORMAT=JSON","constellation":"iceye","records":[{"OBJECT_NAME":"ICEYE-X72","OBJECT_ID":"2026-067CS","EPOCH":"2026-07-16T20:00:01.999008","CLASSIFICATION_TYPE":"U","MEAN_MOTION":14.96444368,"ECCENTRICITY":0.0000624,"INCLINATION":97.766,"RA_OF_ASC_NODE":155.7855,"ARG_OF_PERICENTER":150.1503,"MEAN_ANOMALY":165.3028,"EPHEMERIS_TYPE":0,"NORAD_CAT_ID":68504,"ELEMENT_SET_NO":999,"REV_AT_EPOCH":575,"BSTAR":0.0047282,"MEAN_MOTION_DOT":0.00053967,"MEAN_MOTION_DDOT":0},{"OBJECT_NAME":"ICEYE-X78","OBJECT_ID":"2026-100R","EPOCH":"2026-07-16T15:43:59.023200","CLASSIFICATION_TYPE":"U","MEAN_MOTION":14.91813506,"ECCENTRICITY":0.0003491,"INCLINATION":97.7331,"RA_OF_ASC_NODE":94.5605,"ARG_OF_PERICENTER":52.0617,"MEAN_ANOMALY":308.0917,"EPHEMERIS_TYPE":0,"NORAD_CAT_ID":68995,"ELEMENT_SET_NO":999,"REV_AT_EPOCH":1109,"BSTAR":0.00006089,"MEAN_MOTION_DOT":0.00000559,"MEAN_MOTION_DDOT":0},{"OBJECT_NAME":"ICEYE-X82","OBJECT_ID":"2026-100S","EPOCH":"2026-07-16T16:16:08.111424","CLASSIFICATION_TYPE":"U","MEAN_MOTION":14.91428757,"ECCENTRICITY":0.0005678,"INCLINATION":97.7325,"RA_OF_ASC_NODE":94.5258,"ARG_OF_PERICENTER":60.6047,"MEAN_ANOMALY":299.5738,"EPHEMERIS_TYPE":0,"NORAD_CAT_ID":68996,"ELEMENT_SET_NO":999,"REV_AT_EPOCH":1109,"BSTAR":0.0001315,"MEAN_MOTION_DOT":0.00001259,"MEAN_MOTION_DDOT":0}]}
