ICEYE-X72               
1 68504U 26067CS  26197.83335647  .00053967  00000+0  47282-2 0  9992
2 68504  97.7660 155.7855 0000624 150.1503 165.3028 14.96444368  5754
ICEYE-X78               
1 68995U 26100R   26197.65554425  .00000559  00000+0  60890-4 0  9992
2 68995  97.7331  94.5605 0003491  52.0617 308.0917 14.91813506 11093
ICEYE-X82               
1 68996U 26100S   26197.67787166  .00001259  00000+0  13150-3 0  9999
2 68996  97.7325  94.5258 0005678  60.6047 299.5738 14.91428757 11097
